{"type": "FeatureCollection", "features": [ {"type": "Feature", "properties": {"norad_id": 34077, "name": "IRIDIUM 33 DEB", "group": "iridium-33-debris", "lat": 69.83897055483938, "lon": 58.2467268789163, "alt_km": 666.7575307063471, "timestamp": "2025-12-19T22:41:52.780617+00:00", "meta": {"OBJECT_NAME": "IRIDIUM 33 DEB", "OBJECT_ID": "1997-051CL", "EPOCH": "2025-12-19T04:37:08.925888", "MEAN_MOTION": 14.64901937, "ECCENTRICITY": 0.0009486, "INCLINATION": 86.3856, "RA_OF_ASC_NODE": 48.6652, "ARG_OF_PERICENTER": 18.7729, "MEAN_ANOMALY": 41.3423, "EPHEMERIS_TYPE": 0, "CLASSIFICATION_TYPE": "U", "NORAD_CAT_ID": 34077, "ELEMENT_SET_NO": 999, "REV_AT_EPOCH": 88427, "BSTAR": 0.00072795, "MEAN_MOTION_DOT": 3.915e-05, "MEAN_MOTION_DDOT": 0}, "tle": {"line1": "1 34077U 97051CL  25353.19246442  .00003915  00000+0  72795-3 0  9993", "line2": "2 34077  86.3856  48.6652 0009486  18.7729  41.3423 14.64901937884271"}}, "geometry": {"type": "Point", "coordinates": [58.2467268789163, 69.83897055483938]}}, {"type": "Feature", "properties": {"norad_id": 34079, "name": "IRIDIUM 33 DEB", "group": "iridium-33-debris", "lat": -7.4962870221171425, "lon": -174.13744153474, "alt_km": 624.7834681001959, "timestamp": "2025-12-19T22:41:52.780628+00:00", "meta": {"OBJECT_NAME": "IRIDIUM 33 DEB", "OBJECT_ID": "1997-051CN", "EPOCH": "2025-12-19T07:23:13.665120", "MEAN_MOTION": 14.83686948, "ECCENTRICITY": 0.0004814, "INCLINATION": 86.3768, "RA_OF_ASC_NODE": 5.675, "ARG_OF_PERICENTER": 345.2663, "MEAN_ANOMALY": 36.9038, "EPHEMERIS_TYPE": 0, "CLASSIFICATION_TYPE": "U", "NORAD_CAT_ID": 34079, "ELEMENT_SET_NO": 999, "REV_AT_EPOCH": 89075, "BSTAR": 0.0011698, "MEAN_MOTION_DOT": 9.693e-05, "MEAN_MOTION_DDOT": 0}, "tle": {"line1": "1 34079U 97051CN  25353.30779705  .00009693  00000+0  11698-2 0  9994", "line2": "2 34079  86.3768   5.6750 0004814 345.2663  36.9038 14.83686948890757"}}, "geometry": {"type": "Point", "coordinates": [-174.13744153474, -7.4962870221171425]}}, {"type": "Feature", "properties": {"norad_id": 34088, "name": "IRIDIUM 33 DEB", "group": "iridium-33-debris", "lat": 55.63184170376431, "lon": -157.89232463025849, "alt_km": 583.5859976006268, "timestamp": "2025-12-19T22:41:52.780639+00:00", "meta": {"OBJECT_NAME": "IRIDIUM 33 DEB", "OBJECT_ID": "1997-051CX", "EPOCH": "2025-12-19T03:03:48.145248", "MEAN_MOTION": 14.91662643, "ECCENTRICITY": 0.00063639, "INCLINATION": 86.3843, "RA_OF_ASC_NODE": 27.7888, "ARG_OF_PERICENTER": 156.0805, "MEAN_ANOMALY": 257.7392, "EPHEMERIS_TYPE": 0, "CLASSIFICATION_TYPE": "U", "NORAD_CAT_ID": 34088, "ELEMENT_SET_NO": 999, "REV_AT_EPOCH": 88837, "BSTAR": 0.00181826, "MEAN_MOTION_DOT": 0.00018329, "MEAN_MOTION_DDOT": 0}, "tle": {"line1": "1 34088U 97051CX  25353.12764057  .00018329  00000+0  18183-2 0  9990", "line2": "2 34088  86.3843  27.7888 0006363 156.0805 257.7392 14.91662643888371"}}, "geometry": {"type": "Point", "coordinates": [-157.89232463025849, 55.63184170376431]}}, {"type": "Feature", "properties": {"norad_id": 34091, "name": "IRIDIUM 33 DEB", "group": "iridium-33-debris", "lat": 64.63058039723049, "lon": 71.28772818963652, "alt_km": 637.7396457629638, "timestamp": "2025-12-19T22:41:52.780650+00:00", "meta": {"OBJECT_NAME": "IRIDIUM 33 DEB", "OBJECT_ID": "1997-051DA", "EPOCH": "2025-12-19T11:03:50.582304", "MEAN_MOTION": 14.82288933, "ECCENTRICITY": 0.0033847, "INCLINATION": 86.3415, "RA_OF_ASC_NODE": 63.7551, "ARG_OF_PERICENTER": 268.9231, "MEAN_ANOMALY": 90.8113, "EPHEMERIS_TYPE": 0, "CLASSIFICATION_TYPE": "U", "NORAD_CAT_ID": 34091, "ELEMENT_SET_NO": 999, "REV_AT_EPOCH": 87966, "BSTAR": 0.0030946, "MEAN_MOTION_DOT": 0.00025048, "MEAN_MOTION_DDOT": 0}, "tle": {"line1": "1 34091U 97051DA  25353.46100211  .00025048  00000+0  30946-2 0  9994", "line2": "2 34091  86.3415  63.7551 0033847 268.9231  90.8113 14.82288933879665"}}, "geometry": {"type": "Point", "coordinates": [71.28772818963652, 64.63058039723049]}}, {"type": "Feature", "properties": {"norad_id": 34097, "name": "IRIDIUM 33 DEB", "group": "iridium-33-debris", "lat": 11.931073462550101, "lon": 177.42271826081455, "alt_km": 834.8202268030409, "timestamp": "2025-12-19T22:41:52.780660+00:00", "meta": {"OBJECT_NAME": "IRIDIUM 33 DEB", "OBJECT_ID": "1997-051DG", "EPOCH": "2025-12-19T00:09:26.087616", "MEAN_MOTION": 14.34825402, "ECCENTRICITY": 0.00819041, "INCLINATION": 86.2, "RA_OF_ASC_NODE": 358.6418, "ARG_OF_PERICENTER": 341.7144, "MEAN_ANOMALY": 18.111, "EPHEMERIS_TYPE": 0, "CLASSIFICATION_TYPE": "U", "NORAD_CAT_ID": 34097, "ELEMENT_SET_NO": 999, "REV_AT_EPOCH": 87209, "BSTAR": 0.0011301988, "MEAN_MOTION_DOT": 3.348e-05, "MEAN_MOTION_DDOT": 0}, "tle": {"line1": "1 34097U 97051DG  25353.00655194  .00003348  00000+0  11302-2 0  9999", "line2": "2 34097  86.2000 358.6418 0081904 341.7144  18.1110 14.34825402872093"}}, "geometry": {"type": "Point", "coordinates": [177.42271826081455, 11.931073462550101]}}, {"type": "Feature", "properties": {"norad_id": 34145, "name": "IRIDIUM 33 DEB", "group": "iridium-33-debris", "lat": -85.8801355060531, "lon": -97.60478871070366, "alt_km": 795.3493258726521, "timestamp": "2025-12-19T22:41:52.780670+00:00", "meta": {"OBJECT_NAME": "IRIDIUM 33 DEB", "OBJECT_ID": "1997-051DY", "EPOCH": "2025-12-18T08:48:48.486240", "MEAN_MOTION": 14.42328092, "ECCENTRICITY": 0.00557365, "INCLINATION": 86.2113, "RA_OF_ASC_NODE": 330.0199, "ARG_OF_PERICENTER": 75.968, "MEAN_ANOMALY": 284.7708, "EPHEMERIS_TYPE": 0, "CLASSIFICATION_TYPE": "U", "NORAD_CAT_ID": 34145, "ELEMENT_SET_NO": 999, "REV_AT_EPOCH": 87719, "BSTAR": 0.00092678493, "MEAN_MOTION_DOT": 3.137e-05, "MEAN_MOTION_DDOT": 0}, "tle": {"line1": "1 34145U 97051DY  25352.36722785  .00003137  00000+0  92678-3 0  9994", "line2": "2 34145  86.2113 330.0199 0055736  75.9680 284.7708 14.42328092877199"}}, "geometry": {"type": "Point", "coordinates": [-97.60478871070366, -85.8801355060531]}}, {"type": "Feature", "properties": {"norad_id": 34146, "name": "IRIDIUM 33 DEB", "group": "iridium-33-debris", "lat": 83.16910799238019, "lon": 19.48426588744144, "alt_km": 728.2079113208501, "timestamp": "2025-12-19T22:41:52.780681+00:00", "meta": {"OBJECT_NAME": "IRIDIUM 33 DEB", "OBJECT_ID": "1997-051DZ", "EPOCH": "2025-12-19T11:24:45.977760", "MEAN_MOTION": 14.49090588, "ECCENTRICITY": 0.0026145, "INCLINATION": 86.2829, "RA_OF_ASC_NODE": 346.8246, "ARG_OF_PERICENTER": 198.122, "MEAN_ANOMALY": 315.0041, "EPHEMERIS_TYPE": 0, "CLASSIFICATION_TYPE": "U", "NORAD_CAT_ID": 34146, "ELEMENT_SET_NO": 999, "REV_AT_EPOCH": 88204, "BSTAR": 0.0006219, "MEAN_MOTION_DOT": 2.392e-05, "MEAN_MOTION_DDOT": 0}, "tle": {"line1": "1 34146U 97051DZ  25353.47553215  .00002392  00000+0  62190-3 0  9996", "line2": "2 34146  86.2829 346.8246 0026145 198.1220 315.0041 14.49090588882043"}}, "geometry": {"type": "Point", "coordinates": [19.48426588744144, 83.16910799238019]}}, {"type": "Feature", "properties": {"norad_id": 34159, "name": "IRIDIUM 33 DEB", "group": "iridium-33-debris", "lat": -65.27595175932717, "lon": -126.86311547268525, "alt_km": 752.9771785894845, "timestamp": "2025-12-19T22:41:52.780692+00:00", "meta": {"OBJECT_NAME": "IRIDIUM 33 DEB", "OBJECT_ID": "1997-051EN", "EPOCH": "2025-12-19T09:52:20.074080", "MEAN_MOTION": 14.38508991, "ECCENTRICITY": 0.0026, "INCLINATION": 86.3502, "RA_OF_ASC_NODE": 45.3967, "ARG_OF_PERICENTER": 264.238, "MEAN_ANOMALY": 95.5854, "EPHEMERIS_TYPE": 0, "CLASSIFICATION_TYPE": "U", "NORAD_CAT_ID": 34159, "ELEMENT_SET_NO": 999, "REV_AT_EPOCH": 88055, "BSTAR": 0.00027729, "MEAN_MOTION_DOT": 8.69e-06, "MEAN_MOTION_DDOT": 0}, "tle": {"line1": "1 34159U 97051EN  25353.41134345  .00000869  00000+0  27729-3 0  9999", "line2": "2 34159  86.3502  45.3967 0026000 264.2380  95.5854 14.38508991880555"}}, "geometry": {"type": "Point", "coordinates": [-126.86311547268525, -65.27595175932717]}}, {"type": "Feature", "properties": {"norad_id": 34350, "name": "IRIDIUM 33 DEB", "group": "iridium-33-debris", "lat": 85.38068696277337, "lon": 127.02475483952942, "alt_km": 717.6621985508336, "timestamp": "2025-12-19T22:41:52.780703+00:00", "meta": {"OBJECT_NAME": "IRIDIUM 33 DEB", "OBJECT_ID": "1997-051ES", "EPOCH": "2025-12-19T12:52:33.855744", "MEAN_MOTION": 14.4540166, "ECCENTRICITY": 0.0023302, "INCLINATION": 86.3271, "RA_OF_ASC_NODE": 359.8577, "ARG_OF_PERICENTER": 114.287, "MEAN_ANOMALY": 10.4643, "EPHEMERIS_TYPE": 0, "CLASSIFICATION_TYPE": "U", "NORAD_CAT_ID": 34350, "ELEMENT_SET_NO": 999, "REV_AT_EPOCH": 88391, "BSTAR": 0.00023595, "MEAN_MOTION_DOT": 8.53e-06, "MEAN_MOTION_DDOT": 0}, "tle": {"line1": "1 34350U 97051ES  25353.53650296  .00000853  00000+0  23595-3 0  9993", "line2": "2 34350  86.3271 359.8577 0023302 114.2870  10.4643 14.45401660883919"}}, "geometry": {"type": "Point", "coordinates": [127.02475483952942, 85.38068696277337]}}, {"type": "Feature", "properties": {"norad_id": 34366, "name": "IRIDIUM 33 DEB", "group": "iridium-33-debris", "lat": -73.5824001875546, "lon": 33.73697194010976, "alt_km": 735.605276858968, "timestamp": "2025-12-19T22:41:52.780713+00:00", "meta": {"OBJECT_NAME": "IRIDIUM 33 DEB", "OBJECT_ID": "1997-051FJ", "EPOCH": "2025-12-18T14:34:32.858400", "MEAN_MOTION": 14.54103617, "ECCENTRICITY": 0.00228949, "INCLINATION": 86.3697, "RA_OF_ASC_NODE": 46.7619, "ARG_OF_PERICENTER": 121.3306, "MEAN_ANOMALY": 2.8167, "EPHEMERIS_TYPE": 0, "CLASSIFICATION_TYPE": "U", "NORAD_CAT_ID": 34366, "ELEMENT_SET_NO": 999, "REV_AT_EPOCH": 88267, "BSTAR": 0.00070491505, "MEAN_MOTION_DOT": 3.008e-05, "MEAN_MOTION_DDOT": 0}, "tle": {"line1": "1 34366U 97051FJ  25352.60732475  .00003008  00000+0  70492-3 0  9990", "line2": "2 34366  86.3697  46.7619 0022894 121.3306   2.8167 14.54103617882674"}}, "geometry": {"type": "Point", "coordinates": [33.73697194010976, -73.5824001875546]}}]}